{"type":"FeatureCollection","features":[{"type":"Feature","properties":{"osm_id":"97699120","code":6101,"fclass":"rail","name":null,"layer":0,"bridge":"F","tunnel":"F"},"geometry":{"type":"LineString","coordinates":[[73.7048289,18.701457],[73.7057723,18.7013051],[73.7078498,18.7014155],[73.7134495,18.7017317],[73.7151338,18.7018152],[73.7166403,18.7018982],[73.7171196,18.7019543],[73.7174956,18.7020285],[73.7182085,18.7022437],[73.7187021,18.7023105],[73.7194957,18.7022403],[73.7196271,18.7022289],[73.7196671,18.7022254],[73.7197988,18.702214],[73.7205038,18.7020953],[73.7208094,18.7019692],[73.7212089,18.7016946],[73.7217964,18.7011381],[73.7220612,18.7008101],[73.7222304,18.7004124],[73.7222994,18.7000444],[73.7223056,18.6993736],[73.7221991,18.6967854],[73.7222353,18.6965451],[73.7222617,18.6963698],[73.7224168,18.6958698],[73.7226942,18.6954675],[73.7239476,18.6935738],[73.7244364,18.6929148],[73.7248375,18.6925646],[73.7279209,18.6901781],[73.7282405,18.6897981],[73.7283295,18.6895859],[73.7284223,18.6893648],[73.7284849,18.6888423],[73.72851,18.6884446],[73.728604,18.6881003],[73.7287231,18.6878569],[73.729708,18.6865829],[73.7298691,18.6863745],[73.730003,18.6862013],[73.7303701,18.6856741],[73.7304791,18.685458],[73.7309444,18.6847475],[73.7327854,18.6824335],[73.7332106,18.68197],[73.7337881,18.6814228],[73.734113,18.6810543],[73.7353203,18.6795192],[73.7354527,18.6792761],[73.7357655,18.6787517],[73.7362669,18.6780944],[73.7366268,18.6776456]]}},{"type":"Feature","properties":{"osm_id":"97699130","code":6101,"fclass":"rail","name":null,"layer":0,"bridge":"F","tunnel":"F"},"geometry":{"type":"LineString","coordinates":[[73.7333532,18.6855171],[73.7328489,18.6851649],[73.7324916,18.6850283],[73.7320153,18.6849452],[73.7314513,18.6850105],[73.7310302,18.6851316],[73.7307293,18.6853254],[73.7305884,18.6854622],[73.7303701,18.6856741]]}},{"type":"Feature","properties":{"osm_id":"97699133","code":6101,"fclass":"rail","name":null,"layer":0,"bridge":"F","tunnel":"F"},"geometry":{"type":"LineString","coordinates":[[73.5678553,18.7622438],[73.5674345,18.7624132],[73.5668332,18.7626774],[73.5662508,18.7629535],[73.5658906,18.7631403],[73.5655339,18.7633337],[73.5626457,18.7650033],[73.5589527,18.7670877],[73.5576897,18.7674675],[73.5565011,18.7676926],[73.5554169,18.7677278],[73.5545688,18.767641],[73.5539799,18.7675164],[73.5535872,18.7673953],[73.5529823,18.7671793],[73.5524238,18.7669543],[73.5510197,18.7663312],[73.550541,18.7661866],[73.5501852,18.7660679],[73.5497588,18.7659644],[73.5493093,18.7658782],[73.5487964,18.7658035],[73.5445843,18.765365],[73.5442281,18.7653173],[73.5438768,18.7652557],[73.5433188,18.7651259],[73.5428305,18.7649752],[73.542408,18.7648291],[73.5419604,18.7646367],[73.5415153,18.7644028],[73.5410872,18.7641296],[73.5405953,18.7637804],[73.5401239,18.763398],[73.5387844,18.7622115],[73.5383712,18.7618812],[73.5379373,18.761582],[73.5374554,18.7613006],[73.5369344,18.7610429],[73.5362331,18.7607506],[73.5293791,18.7581991],[73.5285669,18.7578549],[73.5277976,18.7574689],[73.527216,18.7571498],[73.5265988,18.7567816],[73.5260694,18.7563989],[73.5252232,18.7557207],[73.5243473,18.7550106],[73.523611,18.7544401],[73.5228723,18.7539111],[73.5223135,18.7535642],[73.5218511,18.7533005]]}},{"type":"Feature","properties":{"osm_id":"97699152","code":6101,"fclass":"rail","name":null,"layer":0,"bridge":"F","tunnel":"F"},"geometry":{"type":"LineString","coordinates":[[73.7327854,18.6824335],[73.7324858,18.6829524],[73.7323505,18.6833514],[73.7323104,18.6836933],[73.7323147,18.6837678],[73.7323193,18.6838465],[73.7323555,18.684116],[73.7325259,18.6845767],[73.732907,18.6850517],[73.7333532,18.6855171],[73.7340401,18.6862438],[73.7347721,18.6868802],[73.7357096,18.6874596],[73.736018,18.6876292],[73.736582,18.6879393],[73.7375245,18.688267],[73.7393986,18.6887253],[73.7394719,18.6887438],[73.7401968,18.6889271],[73.7415054,18.6892406],[73.7422324,18.6895018],[73.7429894,18.689934],[73.7435409,18.6903804],[73.7443056,18.6910413]]}},{"type":"Feature","properties":{"osm_id":"197566766","code":6101,"fclass":"rail","name":null,"layer":0,"bridge":"F","tunnel":"F"},"geometry":{"type":"LineString","coordinates":[[73.6995647,19.8189189],[73.7007267,19.8198756],[73.701779,19.8207217],[73.7023351,19.821179],[73.7030642,19.8217517],[73.7035301,19.8221429],[73.7041439,19.8226166],[73.7046675,19.8229513],[73.7053239,19.8233143],[73.7060354,19.8236018],[73.706787,19.8238186],[73.7074509,19.8239718],[73.7078693,19.8240402],[73.7082375,19.8240684],[73.7086985,19.8240944],[73.7093825,19.8240755],[73.7099837,19.8239883],[73.7105499,19.8238752],[73.7109583,19.8237738],[73.711304,19.8236843],[73.7119403,19.8234439],[73.7122326,19.8232889],[73.7128422,19.8229655],[73.7145558,19.8220109],[73.7156131,19.821417],[73.717026,19.8206063],[73.718682,19.8196517],[73.7202102,19.8188457],[73.7218061,19.8181339],[73.7234345,19.8174103],[73.7254588,19.8165123],[73.7271123,19.8157793],[73.7277711,19.8154989],[73.7288584,19.8150676],[73.7294246,19.8148908],[73.7305645,19.8145278],[73.7315416,19.814285],[73.7323909,19.8141059],[73.733423,19.8139197],[73.7347308,19.8137524],[73.7356803,19.8136722],[73.7369229,19.8136416],[73.7382557,19.8136722],[73.7387993,19.8137335],[73.7399092,19.8138443],[73.7411969,19.8140399],[73.7420011,19.8141861],[73.7431184,19.8144571],[73.7446867,19.8149167],[73.7463728,19.8155625],[73.7472171,19.8159302],[73.7480237,19.8163167],[73.7487879,19.8166679],[73.7494242,19.8169319],[73.7500731,19.8171487],[73.750737,19.8173231],[73.751481,19.8174928],[73.75218,19.8176201],[73.7529566,19.8177049],[73.7536005,19.8177285],[73.7541692,19.8177427],[73.7550886,19.8176837],[73.7555847,19.817646],[73.7562711,19.8175258],[73.7568373,19.8173868],[73.7573358,19.8172288],[73.7578945,19.8170521],[73.758606,19.8167009],[73.7590995,19.8164086],[73.7596958,19.8159868],[73.7601317,19.8156238],[73.7606879,19.8150793],[73.76167,19.8137594],[73.7622011,19.8130971],[73.7625844,19.812647],[73.7629827,19.8122557],[73.7637092,19.8116665],[73.7642554,19.8113294],[73.7649894,19.8109381],[73.7658237,19.8106152],[73.7664475,19.8104125],[73.7673669,19.8101957],[73.7681511,19.8100684],[73.7690179,19.8099765],[73.7705086,19.8099906],[73.7714104,19.8100849],[73.7719666,19.8101792],[73.7730263,19.8104361],[73.7736752,19.8106223],[73.7743491,19.8108674],[73.7749429,19.8111432],[73.7758323,19.8116099],[73.7763609,19.8119493],[73.7769045,19.8123358],[73.7772552,19.8126163],[73.7776607,19.8129664],[73.7781877,19.8134644],[73.7786612,19.8140059],[73.7790983,19.8145382],[73.7796374,19.8152556],[73.7805481,19.8165076],[73.7807634,19.8168135],[73.7813325,19.8176224],[73.782282,19.8189064],[73.7841744,19.8216165],[73.7856306,19.8236616],[73.786314,19.8244823],[73.7868944,19.8250412],[73.7878148,19.825781],[73.7888966,19.8265241],[73.7900093,19.8272704],[73.7909229,19.8279327],[73.7913525,19.8284055],[73.7921304,19.8294437],[73.7924288,19.830157],[73.7926772,19.8312066],[73.7927459,19.8320918],[73.7926085,19.8328866],[73.792407,19.8336633],[73.7919217,19.8347797],[73.79096,19.8368085],[73.7906339,19.837777],[73.7904724,19.8392313],[73.7905182,19.8403481],[73.7907746,19.8414474],[73.7912348,19.8426685],[73.7917301,19.8433491],[73.7924616,19.8442624],[73.7926811,19.8444727]]}},{"type":"Feature","properties":{"osm_id":"198196537","code":6101,"fclass":"rail","name":null,"layer":0,"bridge":"F","tunnel":"F"},"geometry":{"type":"LineString","coordinates":[[73.5722029,19.6928883],[73.572329,19.6928629],[73.572569,19.6928017],[73.5734988,19.6926835],[73.5738242,19.6926436],[73.5747515,19.6924414],[73.5749064,19.6924181],[73.5769179,19.6921925],[73.5776953,19.6922039]]}},{"type":"Feature","properties":{"osm_id":"222687662","code":6101,"fclass":"rail","name":null,"layer":0,"bridge":"F","tunnel":"F"},"geometry":{"type":"LineString","coordinates":[[73.5351926,19.6999869],[73.535919,19.6996287],[73.5369966,19.6990893],[73.5375443,19.6989403],[73.5380898,19.6988577],[73.5387209,19.6988215],[73.5393135,19.6988235],[73.5416924,19.6987912],[73.5425922,19.6987402],[73.5433141,19.6986837]]}},{"type":"Feature","properties":{"osm_id":"235145483","code":6101,"fclass":"rail","name":"Mumbai–Pune Railway","layer":0,"bridge":"F","tunnel":"F"},"geometry":{"type":"LineString","coordinates":[[73.6748243,18.7328268],[73.6755606,18.7321895],[73.6779178,18.7301491],[73.6791248,18.7291894],[73.6801451,18.7284813],[73.6813528,18.7278613],[73.682866,18.7273563],[73.6905906,18.7253627],[73.6923478,18.7247974],[73.6938539,18.7239727],[73.695403,18.722741],[73.6964008,18.7213989],[73.6966591,18.7209496],[73.6969033,18.7204803],[73.6970162,18.7202343],[73.6971086,18.720001],[73.6972006,18.7197697],[73.6972954,18.7195205],[73.6973988,18.7191747],[73.6975032,18.7187993],[73.6977746,18.7174699],[73.6975068,18.7148433],[73.6972391,18.7118182],[73.6974112,18.7098981],[73.6977555,18.7083583],[73.698597,18.7065468],[73.7000888,18.7045179],[73.7016953,18.7031049],[73.7039522,18.7018186],[73.7048289,18.701457],[73.7056888,18.7012136],[73.7075334,18.7009016],[73.7082084,18.7007864],[73.708784,18.7006878],[73.7094971,18.7005171],[73.710133,18.7003426],[73.7107762,18.7001151],[73.7113823,18.6998667],[73.7119943,18.6995517],[73.7125238,18.6992407],[73.7144788,18.6979263],[73.7258276,18.6900535],[73.7267031,18.6893868],[73.7275442,18.6886307],[73.7276554,18.6885277],[73.7278446,18.6883624],[73.7289862,18.6870615],[73.7344033,18.6803339],[73.735902,18.6784794],[73.7366268,18.6776456],[73.7368912,18.6773614],[73.7375435,18.6768003],[73.7385563,18.6759954],[73.7394146,18.6752717],[73.7397493,18.6749221],[73.7401184,18.674483],[73.7406677,18.6736373],[73.7409424,18.6731088],[73.7411226,18.6726697],[73.74126,18.672255],[73.7420839,18.6690106],[73.7422642,18.668417],[73.7425303,18.6678559],[73.7428564,18.6672867],[73.7432856,18.666685],[73.7438349,18.6660507],[73.7444443,18.6654815],[73.7450451,18.6650505],[73.7454394,18.6648015],[73.7455601,18.6647253],[73.7462038,18.6644163],[73.7469763,18.6641072],[73.7475084,18.6639609],[73.7492989,18.6635556],[73.7501229,18.6633198],[73.7508953,18.6630352],[73.751685,18.6626855],[73.7523631,18.6623358],[73.7529724,18.6619618],[73.7535733,18.6615145],[73.7541312,18.6610754],[73.7545946,18.6606607],[73.755101,18.6601403],[73.7555989,18.6595222],[73.7560452,18.6589205],[73.7564228,18.6583024],[73.7586537,18.6541642],[73.7587868,18.6539638],[73.7590672,18.6535525],[73.7593926,18.6530753],[73.7597464,18.6526422],[73.7601158,18.6522434],[73.7604825,18.6518665],[73.7608957,18.651497],[73.7613794,18.6510949],[73.7645099,18.6485335],[73.7664801,18.6469215],[73.7667113,18.6467306],[73.7671532,18.6463846],[73.7675694,18.6460842],[73.7680406,18.6457866],[73.7685099,18.6454994],[73.7689738,18.6452519],[73.7694658,18.6450356],[73.7699642,18.6448227],[73.7704704,18.644649],[73.7710075,18.6444954],[73.7715499,18.6443622],[73.7720868,18.6442549],[73.7726402,18.644158],[73.7731734,18.6441026],[73.7737103,18.6440646],[73.7742636,18.6440507],[73.7748097,18.644075],[73.7752279,18.6441096],[73.7756954,18.6441649],[73.776077,18.6442238],[73.7764441,18.6442826],[73.7788548,18.6447756],[73.7794191,18.6448898],[73.7799323,18.644985],[73.7805093,18.645068],[73.781101,18.6451268],[73.7817256,18.645158],[73.7823227,18.6451372],[73.7829199,18.645094],[73.7835244,18.6450247],[73.7843699,18.6448829],[73.7853469,18.6446354],[73.7858308,18.6444814],[73.7863476,18.6442945],[73.7868918,18.6440609],[73.7874123,18.6437962],[73.7881044,18.6433878],[73.7883758,18.6432104]]}},{"type":"Feature","properties":{"osm_id":"235145484","code":6101,"fclass":"rail","name":"Mumbai–Pune Railway","layer":0,"bridge":"F","tunnel":"F"},"geometry":{"type":"LineString","coordinates":[[73.7880769,18.6433459],[73.7873862,18.6437534],[73.7868687,18.6440166],[73.7863276,18.6442489],[73.7858132,18.6444349],[73.7853318,18.6445881],[73.7843586,18.6448346],[73.7835167,18.6449759],[73.7829148,18.6450448],[73.7823198,18.6450879],[73.781726,18.6451085],[73.7811051,18.6450776],[73.780516,18.645019],[73.7799412,18.6449363],[73.7794296,18.6448414],[73.7788658,18.6447273],[73.776454,18.6442341],[73.7760856,18.644175],[73.7757028,18.644116],[73.7752334,18.6440604],[73.7748132,18.6440257],[73.7742642,18.6440013],[73.7737077,18.6440152],[73.7731686,18.6440534],[73.7726326,18.6441091],[73.7720767,18.6442064],[73.771538,18.6443141],[73.7709935,18.6444479],[73.7706348,18.6445504],[73.770454,18.6446021],[73.7699446,18.6447769],[73.769444,18.6449907],[73.76895,18.6452079],[73.768483,18.645457],[73.768012,18.6457453],[73.7675391,18.646044],[73.7671208,18.6463459],[73.7666776,18.6466929],[73.766444,18.6468857],[73.7644769,18.6484952],[73.7613456,18.6510572],[73.7608607,18.6514604],[73.7604454,18.6518318],[73.760077,18.6522103],[73.7597062,18.6526108],[73.75935,18.6530467],[73.7590228,18.6535265],[73.7587398,18.653954],[73.7586864,18.6540376],[73.7563916,18.6582863],[73.7560153,18.6589023],[73.7555703,18.6595023],[73.7550738,18.6601186],[73.7545694,18.660637],[73.7541077,18.6610502],[73.753551,18.6614883],[73.7529518,18.6619344],[73.752345,18.6623068],[73.751669,18.6626554],[73.7508814,18.6630042],[73.7501114,18.6632879],[73.7492897,18.6635231],[73.7474994,18.6639283],[73.7469644,18.6640754],[73.7461889,18.6643857],[73.7455422,18.6646962],[73.7454197,18.6647735],[73.7450246,18.665023],[73.7444211,18.665456],[73.7438087,18.666028],[73.7432571,18.6666648],[73.7428261,18.6672692],[73.7424985,18.6678409],[73.7422308,18.6684054],[73.7420496,18.669002],[73.7412258,18.672246],[73.7410891,18.6726585],[73.7409099,18.6730952],[73.7406366,18.673621],[73.7400893,18.6744636],[73.7397223,18.6749003],[73.7393896,18.6752477],[73.7385331,18.6759699],[73.7375202,18.6767749],[73.7368659,18.6773377],[73.7366002,18.6776233],[73.7358825,18.6784581],[73.7343857,18.6803162],[73.7289584,18.6870406],[73.7278187,18.6883393],[73.727628,18.6885096],[73.7275198,18.6886062],[73.7266798,18.6893614],[73.725806,18.6900268],[73.7144581,18.6978967],[73.7125042,18.6992126],[73.7119765,18.6995226],[73.7113668,18.6998364],[73.710763,18.7000839],[73.7101219,18.7003106],[73.709488,18.7004846],[73.7087748,18.7006534],[73.7082019,18.7007533],[73.7076134,18.7008526],[73.7075209,18.7008683],[73.7056806,18.7011808],[73.7048167,18.7014253],[73.7039359,18.7017886],[73.7016739,18.7030779],[73.7000619,18.7044957],[73.6985659,18.7065302],[73.6977216,18.7083479],[73.697376,18.7098932],[73.6972035,18.7118182],[73.6974715,18.7148463],[73.6977387,18.7174675],[73.6974147,18.7187389],[73.6973033,18.7191227],[73.6971943,18.7194815],[73.6971086,18.7197361],[73.6970166,18.7199641],[73.696921,18.7202037],[73.6968113,18.7204334],[73.6965972,18.720849],[73.6963023,18.7213489],[73.6953768,18.7227179],[73.6938344,18.7239443],[73.69231,18.7246889],[73.6906593,18.7252541],[73.6827909,18.7273055],[73.6813273,18.7278001],[73.6800276,18.7284538],[73.6790476,18.7291681],[73.677839,18.7301266],[73.6749117,18.7326954],[73.6747928,18.7327997]]}},{"type":"Feature","properties":{"osm_id":"235145486","code":6101,"fclass":"rail","name":null,"layer":0,"bridge":"F","tunnel":"F"},"geometry":{"type":"LineString","coordinates":[[73.7932849,18.6361845],[73.7932297,18.6365847],[73.7931845,18.6368023],[73.7931371,18.6369947],[73.7929225,18.6375831],[73.7925791,18.6383617],[73.7923775,18.638768],[73.7921723,18.6391568],[73.7919431,18.6395547],[73.7916185,18.640057],[73.7912354,18.6405917],[73.790878,18.6410294],[73.7906778,18.6412596],[73.7904642,18.6414858],[73.79011,18.6418631],[73.7896812,18.6422521],[73.7892432,18.6426263],[73.7888061,18.6429476],[73.7883758,18.6432104]]}},{"type":"Feature","properties":{"osm_id":"235145488","code":6101,"fclass":"rail","name":null,"layer":0,"bridge":"F","tunnel":"F"},"geometry":{"type":"LineString","coordinates":[[73.7931371,18.6369947],[73.7930621,18.6373429],[73.7929874,18.6376666],[73.792952,18.63781],[73.792927,18.6378873],[73.792695,18.6384168],[73.7925054,18.6388123],[73.792311,18.6392254],[73.7920785,18.639629],[73.7917493,18.6401383],[73.7913526,18.6406741],[73.7911727,18.6408944],[73.7909857,18.6411066],[73.7905378,18.6415407],[73.7901672,18.6419147],[73.7897283,18.6423044],[73.7892788,18.6426573],[73.7890293,18.6428229],[73.7888061,18.6429476]]}},{"type":"Feature","properties":{"osm_id":"235145490","code":6101,"fclass":"rail","name":null,"layer":0,"bridge":"F","tunnel":"F"},"geometry":{"type":"LineString","coordinates":[[73.7934193,18.6344977],[73.7932088,18.6354743],[73.7931832,18.6356963],[73.7931159,18.6364289],[73.7929726,18.6368049],[73.7928354,18.6371901],[73.792702,18.6374979],[73.7923241,18.6382547],[73.7921469,18.6386212],[73.792126,18.6386643],[73.7919305,18.6390434],[73.7916841,18.6394314],[73.7913505,18.639894],[73.7910276,18.6404136],[73.7908071,18.6407878],[73.7907274,18.6409148],[73.7905253,18.6411478],[73.7903267,18.6413687],[73.7899718,18.6417208],[73.7893686,18.6422981],[73.789159,18.6425341]]}},{"type":"Feature","properties":{"osm_id":"235145492","code":6101,"fclass":"rail","name":null,"layer":0,"bridge":"F","tunnel":"F"},"geometry":{"type":"LineString","coordinates":[[73.7934208,18.6353558],[73.7932937,18.6357607],[73.7931905,18.6361639],[73.7931159,18.6364289],[73.7930375,18.636768],[73.7929133,18.6372145],[73.7927913,18.6375311],[73.7927108,18.6377136],[73.7924491,18.638307],[73.7922496,18.6387092],[73.7920463,18.6390943],[73.79182,18.6394872],[73.7914995,18.639983],[73.7911205,18.6405122],[73.790767,18.6409451],[73.7905676,18.6411744],[73.7903567,18.6413976],[73.7900076,18.6417695],[73.7895832,18.6421544],[73.789159,18.6425341],[73.7887366,18.6428536],[73.7883329,18.6431513],[73.7880769,18.6433459]]}},{"type":"Feature","properties":{"osm_id":"235145499","code":6101,"fclass":"rail","name":null,"layer":0,"bridge":"F","tunnel":"F"},"geometry":{"type":"LineString","coordinates":[[73.7883329,18.6431513],[73.7880556,18.6433221],[73.7873664,18.6437173],[73.7868512,18.643981],[73.7863101,18.6442165]]}},{"type":"Feature","properties":{"osm_id":"244751337","code":6101,"fclass":"rail","name":null,"layer":0,"bridge":"F","tunnel":"F"},"geometry":{"type":"LineString","coordinates":[[73.7960851,19.8299393],[73.7953379,19.8298252],[73.7943763,19.8296152],[73.7936517,19.8293793],[73.7929099,19.8290724],[73.7921887,19.8286557],[73.7914537,19.8281743],[73.7906329,19.8276315],[73.7896953,19.8270112],[73.7891253,19.8266074],[73.7882779,19.8260546],[73.7877509,19.8256615],[73.7871021,19.8251124],[73.7865609,19.824601],[73.786125,19.8241178],[73.7857718,19.82367],[73.7853358,19.8230785],[73.7844715,19.8218859],[73.7835496,19.8206038],[73.7826477,19.8193381],[73.7816556,19.8179594],[73.7808052,19.8167887],[73.7807362,19.8166937],[73.7797716,19.815355],[73.7787169,19.8139927],[73.7780355,19.8132479],[73.7776822,19.8129108],[73.7772805,19.8125613],[73.7766868,19.8121229],[73.7762183,19.8117882],[73.7755243,19.8113852],[73.7748228,19.8110481],[73.7743543,19.8108337],[73.7736905,19.8105862],[73.7729815,19.8103788],[73.7721447,19.8101666],[73.7714933,19.8100535],[73.7705814,19.809938],[73.769682,19.8099121],[73.768943,19.8099404],[73.7683016,19.8100111],[73.7677104,19.8101006],[73.766821,19.8102751],[73.7659817,19.8105084],[73.7651575,19.8108124],[73.764466,19.8111566],[73.7636819,19.8116327],[73.763276,19.8119462],[73.7625696,19.8126108],[73.7622489,19.8129573],[73.7617228,19.8136102],[73.7613069,19.8141594],[73.7607006,19.8149419],[73.7604301,19.8152412],[73.759919,19.8157338],[73.7594705,19.8160991],[73.7585812,19.8166718],[73.7579448,19.8169594],[73.7572308,19.817221],[73.7566496,19.8173978],[73.7555723,19.8176123],[73.7545502,19.8176877],[73.753731,19.81769],[73.7531623,19.8176641],[73.7526712,19.8176311],[73.7520424,19.817558],[73.7512908,19.8174166],[73.7505843,19.8172516],[73.7499079,19.817056],[73.7492991,19.8168345],[73.7488281,19.8166506],[73.7482594,19.8163937],[73.7472373,19.8159011],[73.746388,19.8155099],[73.7450276,19.8149984],[73.7438351,19.8146119],[73.7431963,19.8144328],[73.741846,19.8141169],[73.7408313,19.8139425],[73.7396764,19.8137822],[73.7387219,19.8136573],[73.7381858,19.8136267],[73.7374141,19.8136008],[73.7366375,19.8136031],[73.7358984,19.8136196],[73.7351744,19.8136597],[73.7342926,19.8137587],[73.7335059,19.8138482],[73.7325765,19.8140344],[73.7318023,19.8141971],[73.7306349,19.814454],[73.7298582,19.8147038],[73.7286858,19.8150809],[73.7274882,19.8155641],[73.7268469,19.8158399],[73.7257997,19.8163207],[73.7239057,19.8171409],[73.7222923,19.8178621],[73.7205837,19.8185904],[73.719038,19.8193846],[73.7172743,19.8204122],[73.7158813,19.8211876],[73.7145535,19.8219465],[73.7129808,19.8228436],[73.7122846,19.8232269],[73.7122148,19.8232589],[73.7118346,19.8234335],[73.7112872,19.8236185],[73.710669,19.8237851],[73.7100808,19.8238985],[73.7096486,19.8239585],[73.7093811,19.8239818],[73.7089489,19.8239918],[73.7084599,19.8239651],[73.7081056,19.8239435],[73.7077566,19.8239001],[73.707436,19.8238501],[73.7070994,19.8237918],[73.7066725,19.8236951],[73.7063005,19.8235935],[73.7058151,19.8233935],[73.7053899,19.8232069],[73.704839,19.8229319],[73.7043217,19.8225886],[73.7039249,19.8222953],[73.7035316,19.8219603],[73.7031012,19.8215387],[73.7026158,19.820997],[73.7019515,19.8201988],[73.7011561,19.8192055],[73.7002689,19.8180375]]}},{"type":"Feature","properties":{"osm_id":"244760520","code":6101,"fclass":"rail","name":null,"layer":0,"bridge":"F","tunnel":"F"},"geometry":{"type":"LineString","coordinates":[[73.6546893,19.7693943],[73.6549557,19.769997],[73.6551926,19.7704528],[73.6556875,19.7712494],[73.6568403,19.7729376],[73.6584836,19.7754799],[73.6614566,19.7800234],[73.662723,19.7819385],[73.6632225,19.7824713],[73.6638965,19.7830612],[73.6644664,19.7834399],[73.6650673,19.7837204],[73.668485,19.7849341],[73.6690289,19.7851732]]}},{"type":"Feature","properties":{"osm_id":"244760533","code":6101,"fclass":"rail","name":null,"layer":0,"bridge":"F","tunnel":"F"},"geometry":{"type":"LineString","coordinates":[[73.5589882,19.6950195],[73.5591161,19.6949856],[73.559288,19.694952],[73.5595872,19.6949078],[73.5598898,19.6948761],[73.5628906,19.6946184],[73.5641456,19.6945106],[73.564355,19.6944853],[73.5646068,19.6944534],[73.5649256,19.6943872],[73.5652966,19.6942959],[73.5655601,19.6942151],[73.5659677,19.6940737],[73.566414,19.6938975],[73.5666564,19.6938141],[73.5669428,19.6937237],[73.567425,19.6936118]]}},{"type":"Feature","properties":{"osm_id":"244760535","code":6101,"fclass":"rail","name":null,"layer":1,"bridge":"T","tunnel":"F"},"geometry":{"type":"LineString","coordinates":[[73.6990335,19.818471],[73.6995647,19.8189189]]}},{"type":"Feature","properties":{"osm_id":"244760536","code":6101,"fclass":"rail","name":null,"layer":1,"bridge":"T","tunnel":"F"},"geometry":{"type":"LineString","coordinates":[[73.7002689,19.8180375],[73.699883,19.817567]]}},{"type":"Feature","properties":{"osm_id":"244760539","code":6101,"fclass":"rail","name":null,"layer":0,"bridge":"F","tunnel":"F"},"geometry":{"type":"LineString","coordinates":[[73.699883,19.817567],[73.6994802,19.8171456],[73.6990675,19.8166306],[73.6986724,19.8161123],[73.6983287,19.8156507],[73.6979603,19.815019],[73.6977512,19.8145407],[73.6974979,19.8138757],[73.697195,19.8128224],[73.6969381,19.8119091],[73.6966883,19.8109408],[73.6963836,19.8098358],[73.6961002,19.8088741],[73.695405,19.8062717],[73.6946684,19.8035469],[73.6943077,19.8025805],[73.6940321,19.8018969],[73.6935962,19.8013171],[73.6931101,19.8007796],[73.6925039,19.8002799],[73.6918775,19.7998934],[73.6909756,19.7995256],[73.6904345,19.7994031],[73.6896679,19.7992711],[73.6889965,19.7992475],[73.68831,19.7992993],[73.6875434,19.7994549],[73.6867518,19.7997189],[73.68592,19.8001762],[73.6852937,19.8006901],[73.6844018,19.8015434],[73.6829688,19.8029576],[73.6820418,19.8037826],[73.6816109,19.8041032],[73.6812001,19.8043389],[73.6805637,19.8045888],[73.6801679,19.8047208],[73.6794263,19.8048857],[73.6789303,19.8049282],[73.6781136,19.8049329],[73.6774873,19.8048527],[73.6769111,19.8047302],[73.6761795,19.8044096],[73.6756935,19.804155],[73.6748531,19.8035235],[73.6744181,19.8031231]]}},{"type":"Feature","properties":{"osm_id":"286898422","code":6101,"fclass":"rail","name":null,"layer":0,"bridge":"F","tunnel":"F"},"geometry":{"type":"LineString","coordinates":[[73.5491761,19.6979208],[73.5486953,19.6978973],[73.5471525,19.6978457],[73.5470402,19.6978445]]}},{"type":"Feature","properties":{"osm_id":"286899593","code":6101,"fclass":"rail","name":null,"layer":1,"bridge":"T","tunnel":"F"},"geometry":{"type":"LineString","coordinates":[[73.6136863,19.7007529],[73.6132565,19.700513]]}},{"type":"Feature","properties":{"osm_id":"286899594","code":6101,"fclass":"rail","name":null,"layer":1,"bridge":"T","tunnel":"F"},"geometry":{"type":"LineString","coordinates":[[73.6132313,19.7005526],[73.6136496,19.70079]]}},{"type":"Feature","properties":{"osm_id":"286899595","code":6101,"fclass":"rail","name":null,"layer":0,"bridge":"F","tunnel":"F"},"geometry":{"type":"LineString","coordinates":[[73.6132565,19.700513],[73.612974,19.7003441],[73.6112592,19.6994268],[73.6090377,19.6982593],[73.6060333,19.6966615],[73.6032414,19.6951738],[73.6024938,19.6948269],[73.6016506,19.6945434],[73.6011652,19.6944466],[73.6005487,19.6943466],[73.5997339,19.6943099],[73.5990323,19.6942532],[73.5981962,19.6941364],[73.5975372,19.6939696],[73.5970872,19.6938028],[73.59612,19.6934092],[73.5939056,19.6924285],[73.5926443,19.6918848],[73.5918825,19.6916429],[73.5909012,19.6913744],[73.590156,19.6912594],[73.589321,19.6911709],[73.5884087,19.6911424],[73.5876664,19.6911642],[73.5857284,19.6913711],[73.5852643,19.6914411],[73.5845133,19.6915254],[73.5772058,19.6923706],[73.5761281,19.6925012],[73.5749873,19.6926303],[73.5739074,19.6927469],[73.5689034,19.6933254]]}},{"type":"Feature","properties":{"osm_id":"286899596","code":6101,"fclass":"rail","name":null,"layer":0,"bridge":"F","tunnel":"F"},"geometry":{"type":"LineString","coordinates":[[73.567677,19.6935586],[73.5682754,19.6934607],[73.568839,19.6933744],[73.5698757,19.693251],[73.5739195,19.6927893],[73.5757082,19.6925825],[73.5844075,19.6915831],[73.5852403,19.6914899],[73.5860911,19.6913338],[73.5872299,19.6912287],[73.5883505,19.6911881],[73.5892844,19.6912208],[73.5901676,19.6913132],[73.5905631,19.6913746],[73.5908926,19.6914346],[73.591351,19.6915381],[73.5918485,19.6916712],[73.5925425,19.6919036],[73.5940378,19.6925264],[73.5950906,19.6929931],[73.5961386,19.6934579],[73.5969032,19.6937844],[73.5974,19.6939617],[73.5978734,19.6940975],[73.598188,19.6941656],[73.5985277,19.6942289],[73.5988955,19.6942869],[73.5992624,19.6943223],[73.5998902,19.6943484],[73.6005888,19.6944031],[73.6010104,19.6944618],[73.6014063,19.6945423],[73.6017578,19.6946323],[73.6020781,19.6947339],[73.6024147,19.6948548],[73.6027006,19.694971],[73.6035274,19.6953663],[73.604759,19.6960245],[73.6073946,19.6974311],[73.6096923,19.6986651],[73.6132313,19.7005526]]}},{"type":"Feature","properties":{"osm_id":"386065444","code":6101,"fclass":"rail","name":null,"layer":0,"bridge":"F","tunnel":"F"},"geometry":{"type":"LineString","coordinates":[[73.5689034,19.6933254],[73.5683282,19.6934059],[73.5676914,19.6935137]]}},{"type":"Feature","properties":{"osm_id":"400497643","code":6101,"fclass":"rail","name":null,"layer":0,"bridge":"F","tunnel":"F"},"geometry":{"type":"LineString","coordinates":[[73.5596702,19.6946827],[73.5601133,19.6945983],[73.5604795,19.6945358],[73.5607652,19.6944987],[73.5609986,19.6944683],[73.5613257,19.6944404],[73.5628638,19.6943125],[73.5645496,19.6941724],[73.5647935,19.6941518],[73.5650237,19.6941166],[73.5652617,19.6940703],[73.5659156,19.6938836],[73.5664689,19.693742]]}},{"type":"Feature","properties":{"osm_id":"400497645","code":6101,"fclass":"rail","name":null,"layer":0,"bridge":"F","tunnel":"F"},"geometry":{"type":"LineString","coordinates":[[73.5581379,19.6952975],[73.5584816,19.6952113],[73.5587071,19.6951519],[73.5589864,19.6950982],[73.5592874,19.6950593],[73.5629077,19.6947501],[73.5639807,19.6946585],[73.5642295,19.6946344],[73.5644774,19.6946011],[73.5647167,19.6945555],[73.5650241,19.6944796],[73.5653829,19.6943696],[73.5657627,19.6942425],[73.5659004,19.6941849],[73.5662092,19.6940401]]}},{"type":"Feature","properties":{"osm_id":"400497646","code":6101,"fclass":"rail","name":null,"layer":0,"bridge":"F","tunnel":"F"},"geometry":{"type":"LineString","coordinates":[[73.5592436,19.6947464],[73.5596352,19.694606],[73.5598526,19.6945347],[73.5602864,19.6944069],[73.5604477,19.6943708],[73.5607024,19.6943264],[73.5609729,19.6942977],[73.5646893,19.69399],[73.5648993,19.6939612],[73.5651066,19.6939271],[73.5655253,19.6938328],[73.5658146,19.6937791],[73.5663181,19.6937019],[73.5665254,19.69366],[73.566951,19.6935408],[73.5671138,19.693508],[73.5674561,19.6934646]]}},{"type":"Feature","properties":{"osm_id":"400497647","code":6101,"fclass":"rail","name":null,"layer":0,"bridge":"F","tunnel":"F"},"geometry":{"type":"LineString","coordinates":[[73.5592631,19.6948113],[73.5598075,19.6945923],[73.5601106,19.6945024],[73.5604736,19.6944063],[73.5607017,19.6943641],[73.5611179,19.6943244],[73.5646226,19.6940369],[73.5648702,19.6940094],[73.565097,19.6939727],[73.565581,19.6938666],[73.5658328,19.6938208],[73.5660929,19.6937802],[73.566392,19.693733],[73.5666201,19.6936846],[73.5674561,19.6934646],[73.5677788,19.6933991],[73.5681724,19.6933349],[73.5685995,19.6932773],[73.5689991,19.6932662]]}},{"type":"Feature","properties":{"osm_id":"400497648","code":6101,"fclass":"rail","name":null,"layer":0,"bridge":"F","tunnel":"F"},"geometry":{"type":"LineString","coordinates":[[73.5551833,19.6965658],[73.5556106,19.6963151]]}},{"type":"Feature","properties":{"osm_id":"400497656","code":6101,"fclass":"rail","name":null,"layer":0,"bridge":"F","tunnel":"F"},"geometry":{"type":"LineString","coordinates":[[73.557676,19.6953654],[73.5586344,19.6949457],[73.5588887,19.6948681],[73.5592436,19.6947464],[73.5598075,19.6945923]]}},{"type":"Feature","properties":{"osm_id":"400497658","code":6101,"fclass":"rail","name":null,"layer":0,"bridge":"F","tunnel":"F"},"geometry":{"type":"LineString","coordinates":[[73.5589882,19.6950195],[73.5595821,19.6949427],[73.562898,19.6946582],[73.563884,19.6945736],[73.5641634,19.6945495],[73.5643778,19.6945273],[73.5646256,19.6944921],[73.5649404,19.6944292],[73.5657489,19.6941958],[73.5662092,19.6940401]]}},{"type":"Feature","properties":{"osm_id":"400585282","code":6101,"fclass":"rail","name":null,"layer":0,"bridge":"F","tunnel":"F"},"geometry":{"type":"LineString","coordinates":[[73.5739121,19.6929211],[73.574202,19.6929195],[73.5745262,19.6929015],[73.5805533,19.6922168],[73.5807705,19.6921816],[73.5809922,19.6921364],[73.5817893,19.691922],[73.5821509,19.6918769],[73.583724,19.6917076],[73.5844075,19.6915831]]}},{"type":"Feature","properties":{"osm_id":"400585283","code":6101,"fclass":"rail","name":null,"layer":0,"bridge":"F","tunnel":"F"},"geometry":{"type":"LineString","coordinates":[[73.5747257,19.6920617],[73.5751089,19.6919968],[73.5794643,19.6914961],[73.5797314,19.6914682],[73.5800579,19.6914608],[73.5817831,19.6914645],[73.5820172,19.6914775],[73.5824028,19.6915182],[73.5826122,19.6915182],[73.5830843,19.6915181]]}},{"type":"Feature","properties":{"osm_id":"400585284","code":6101,"fclass":"rail","name":null,"layer":0,"bridge":"F","tunnel":"F"},"geometry":{"type":"LineString","coordinates":[[73.5744279,19.6921702],[73.5747257,19.6920617],[73.5749864,19.6919856],[73.575233,19.6919363],[73.5754749,19.6918971],[73.5795227,19.6914314],[73.5797862,19.6914111],[73.5800744,19.6914024],[73.5818048,19.6914198],[73.582059,19.69143],[73.5826122,19.6915182]]}},{"type":"Feature","properties":{"osm_id":"400585285","code":6101,"fclass":"rail","name":null,"layer":0,"bridge":"F","tunnel":"F"},"geometry":{"type":"LineString","coordinates":[[73.573376,19.6928995],[73.5736398,19.6928981],[73.5737657,19.6929038],[73.5739121,19.6929211],[73.5741702,19.6929517],[73.5743425,19.6929616],[73.5745612,19.6929531],[73.5805614,19.6922563],[73.5807951,19.6922239],[73.5809974,19.6921816],[73.5821509,19.6918769]]}},{"type":"Feature","properties":{"osm_id":"400585286","code":6101,"fclass":"rail","name":null,"layer":0,"bridge":"F","tunnel":"F"},"geometry":{"type":"LineString","coordinates":[[73.556901,19.6957543],[73.5572403,19.6956544],[73.5578927,19.6954294],[73.5583522,19.6952977],[73.5587187,19.6951907],[73.5589969,19.6951357],[73.559296,19.695099],[73.5642451,19.6946813],[73.5646207,19.694642],[73.5649142,19.6945909],[73.5652369,19.6945032],[73.5655499,19.6943853],[73.5658628,19.6942635],[73.5661494,19.6941391],[73.5666268,19.6938838]]}},{"type":"Feature","properties":{"osm_id":"400585287","code":6101,"fclass":"rail","name":null,"layer":0,"bridge":"F","tunnel":"F"},"geometry":{"type":"LineString","coordinates":[[73.572569,19.6928017],[73.5730411,19.6926758],[73.5733425,19.6925975],[73.5738706,19.6923853],[73.5741584,19.6922591],[73.5744279,19.6921702],[73.5747214,19.6921041],[73.5749734,19.6920574],[73.5795871,19.6915266],[73.5798349,19.6915091],[73.5800951,19.6915052],[73.5824028,19.6915182]]}},{"type":"Feature","properties":{"osm_id":"400585288","code":6101,"fclass":"rail","name":null,"layer":0,"bridge":"F","tunnel":"F"},"geometry":{"type":"LineString","coordinates":[[73.5616073,19.6939847],[73.5618006,19.6939687],[73.5620555,19.6939647],[73.5624208,19.6939427],[73.5648402,19.6937447],[73.5650165,19.6937147],[73.5652969,19.6936454],[73.5653753,19.6936276],[73.5657935,19.6935328],[73.5661384,19.6934713],[73.5664556,19.6934267],[73.5673959,19.6933665],[73.5677075,19.6933586]]}},{"type":"Feature","properties":{"osm_id":"400585289","code":6101,"fclass":"rail","name":null,"layer":0,"bridge":"F","tunnel":"F"},"geometry":{"type":"LineString","coordinates":[[73.5733425,19.6925975],[73.5740378,19.6924054],[73.5747875,19.6922246],[73.575056,19.6921799],[73.579552,19.6916704],[73.5798679,19.6916471],[73.5821087,19.6916491],[73.5827902,19.6916549],[73.5829864,19.6916471],[73.583164,19.6916257],[73.5837387,19.6915575],[73.5841362,19.6915244],[73.5845133,19.6915254]]}},{"type":"Feature","properties":{"osm_id":"400585290","code":6101,"fclass":"rail","name":null,"layer":0,"bridge":"F","tunnel":"F"},"geometry":{"type":"LineString","coordinates":[[73.5668112,19.6938243],[73.5671662,19.6937174],[73.5674601,19.6936495],[73.567762,19.6935879],[73.5681062,19.6935321],[73.5685322,19.6934661],[73.573376,19.6928995],[73.573669,19.6928653],[73.5741649,19.6928752],[73.5743417,19.6928681],[73.5745365,19.6928555],[73.5807083,19.6921525],[73.5808835,19.6921257],[73.5815293,19.6919564]]}},{"type":"Feature","properties":{"osm_id":"400585291","code":6101,"fclass":"rail","name":null,"layer":0,"bridge":"F","tunnel":"F"},"geometry":{"type":"LineString","coordinates":[[73.5433141,19.6986837],[73.5460995,19.6985139],[73.5487527,19.6983096],[73.5503035,19.6981565],[73.5514058,19.6980811],[73.5521874,19.6979678],[73.5524587,19.6978922],[73.5527585,19.6978007],[73.5530258,19.6976947],[73.5532896,19.6975718],[73.5538606,19.6972385],[73.5544056,19.6969574],[73.5551833,19.6965658],[73.5568483,19.6957796]]}},{"type":"Feature","properties":{"osm_id":"400585292","code":6101,"fclass":"rail","name":null,"layer":0,"bridge":"F","tunnel":"F"},"geometry":{"type":"LineString","coordinates":[[73.5586344,19.6949457],[73.5592168,19.6946872],[73.5597486,19.6944913],[73.5602659,19.6943616],[73.5605079,19.6943116],[73.5607145,19.694282],[73.56098,19.694256],[73.5647191,19.6939426],[73.5649158,19.6939185],[73.5651223,19.6938833],[73.5655846,19.6937778],[73.5658246,19.6937315],[73.5662377,19.6936629],[73.5664659,19.6936129],[73.5670882,19.6934578],[73.5673775,19.6934015],[73.5677075,19.6933586],[73.5681724,19.6933349]]}},{"type":"Feature","properties":{"osm_id":"400585293","code":6101,"fclass":"rail","name":null,"layer":0,"bridge":"F","tunnel":"F"},"geometry":{"type":"LineString","coordinates":[[73.5676914,19.6935137],[73.5672956,19.6936],[73.5664152,19.693811],[73.5659021,19.6939528],[73.5652683,19.6941063],[73.5650413,19.6941495],[73.5648148,19.6941817],[73.5645513,19.6942087],[73.5628687,19.6943622],[73.5623322,19.6944112],[73.5608214,19.6945366],[73.5605063,19.6945774],[73.5601222,19.6946535],[73.5595366,19.6947851],[73.5587249,19.6950439],[73.5576283,19.6954258],[73.5571734,19.695596],[73.5568886,19.6957062]]}},{"type":"Feature","properties":{"osm_id":"400585294","code":6101,"fclass":"rail","name":null,"layer":0,"bridge":"F","tunnel":"F"},"geometry":{"type":"LineString","coordinates":[[73.574555,19.6920712],[73.5750527,19.6919203],[73.5754163,19.6917825],[73.5755673,19.6917419],[73.5757337,19.6917085],[73.5793779,19.6912994],[73.5796768,19.6912733],[73.5799711,19.6912631],[73.5818202,19.6912675],[73.5820652,19.6912849],[73.5823163,19.6913313],[73.5826153,19.6914024],[73.5828233,19.6914633],[73.5830843,19.6915181],[73.5832805,19.6915251],[73.5835206,19.6915479],[73.5837387,19.6915575]]}},{"type":"Feature","properties":{"osm_id":"400585296","code":6101,"fclass":"rail","name":null,"layer":0,"bridge":"F","tunnel":"F"},"geometry":{"type":"LineString","coordinates":[[73.5596702,19.6946827],[73.5592631,19.6948113],[73.5589472,19.6949115],[73.5587073,19.6949969],[73.557676,19.6953654],[73.5575647,19.695402],[73.5571583,19.6955509],[73.5567866,19.6956952],[73.5563976,19.6958797],[73.5550863,19.6965015],[73.5547282,19.69666],[73.5543221,19.6968123],[73.5539078,19.696948],[73.5534029,19.697112],[73.5529457,19.6972431],[73.5521895,19.6974193],[73.5513622,19.6975772],[73.5503489,19.6977574],[73.5491761,19.6979208],[73.5469228,19.6980542],[73.5449742,19.6981977],[73.5435096,19.6982921],[73.5426481,19.6982838],[73.542122,19.6982106],[73.5416034,19.6981092],[73.541165,19.6979771],[73.5400652,19.6977295],[73.5395587,19.6976671],[73.5387394,19.6976308],[73.5375948,19.6975825],[73.5368311,19.6976308],[73.5366257,19.6976792],[73.5360994,19.6978141],[73.5356502,19.6979531],[73.5352779,19.6981324],[73.5346383,19.6984889],[73.5341633,19.6987447],[73.5338724,19.6988877],[73.5335194,19.6990157],[73.5327749,19.6992313],[73.5314635,19.6995837],[73.5290789,19.7001617],[73.5286241,19.7003225],[73.5282166,19.7004892],[73.5278624,19.7006871],[73.5274025,19.7009645],[73.5267968,19.7012953]]}},{"type":"Feature","properties":{"osm_id":"400585297","code":6101,"fclass":"rail","name":null,"layer":0,"bridge":"F","tunnel":"F"},"geometry":{"type":"LineString","coordinates":[[73.573669,19.6928653],[73.573959,19.6928338],[73.5812266,19.6919959]]}},{"type":"Feature","properties":{"osm_id":"400585298","code":6101,"fclass":"rail","name":null,"layer":0,"bridge":"F","tunnel":"F"},"geometry":{"type":"LineString","coordinates":[[73.5734988,19.6926835],[73.573918,19.6926893],[73.5741597,19.6926718],[73.5788855,19.6921232],[73.5829864,19.6916471]]}},{"type":"Feature","properties":{"osm_id":"400585299","code":6101,"fclass":"rail","name":null,"layer":0,"bridge":"F","tunnel":"F"},"geometry":{"type":"LineString","coordinates":[[73.5568886,19.6957062],[73.5559004,19.696177],[73.5556106,19.6963151],[73.555115,19.6965416],[73.5547432,19.6966975],[73.5543291,19.6968521],[73.5539198,19.6969999],[73.553418,19.6971629],[73.5529513,19.6973011],[73.552208,19.6974692],[73.5513701,19.6976261],[73.5500858,19.6978279],[73.5491805,19.6979647],[73.5487536,19.6979914],[73.5471309,19.6980881],[73.5455206,19.6982032],[73.5434544,19.6983487],[73.5426055,19.6983191],[73.5421145,19.6982531],[73.541631,19.6981611],[73.541155,19.698029],[73.5400527,19.6977719],[73.5395523,19.6977195],[73.5387522,19.6976792],[73.5375906,19.6976329],[73.5369231,19.6976792],[73.5366685,19.6977175],[73.5361572,19.6978464],[73.5357614,19.6979712],[73.535524,19.698074],[73.5346682,19.6985271],[73.5341911,19.698785],[73.5339152,19.69893],[73.5335807,19.6990485],[73.5327926,19.6992721],[73.530708,19.6998218],[73.5290893,19.7002293],[73.5286361,19.7003805],[73.5282401,19.7005668],[73.5279001,19.7007787],[73.5274126,19.7011299],[73.5269928,19.7014156],[73.5268052,19.701527],[73.5265459,19.7016408],[73.5263185,19.7017359],[73.5260508,19.7018183],[73.5257181,19.7018753],[73.5251021,19.7019253],[73.5246624,19.7019367],[73.5238228,19.7019439],[73.5232816,19.701912]]}},{"type":"Feature","properties":{"osm_id":"400585300","code":6101,"fclass":"rail","name":null,"layer":0,"bridge":"F","tunnel":"F"},"geometry":{"type":"LineString","coordinates":[[73.5613142,19.6940387],[73.5616073,19.6939847],[73.5619323,19.6939167],[73.5621256,19.6938967],[73.5643814,19.6936987],[73.5646864,19.6936862],[73.5650005,19.6936748],[73.5653753,19.6936276]]}},{"type":"Feature","properties":{"osm_id":"400585301","code":6101,"fclass":"rail","name":null,"layer":0,"bridge":"F","tunnel":"F"},"geometry":{"type":"LineString","coordinates":[[73.5597486,19.6944913],[73.5601309,19.6943586],[73.5606578,19.6942427],[73.5608681,19.6941907],[73.5610338,19.6941427],[73.5613142,19.6940387],[73.5620109,19.6938087],[73.5621978,19.6937587],[73.5624203,19.6937227],[73.5635979,19.6936015],[73.564019,19.6935872],[73.5644514,19.6936622],[73.5646864,19.6936862]]}},{"type":"Feature","properties":{"osm_id":"400585302","code":6101,"fclass":"rail","name":null,"layer":0,"bridge":"F","tunnel":"F"},"geometry":{"type":"LineString","coordinates":[[73.5741584,19.6922591],[73.574555,19.6920712],[73.5749864,19.6918783],[73.575384,19.6917274],[73.5756814,19.6916345],[73.5759017,19.6915983],[73.5763855,19.691546]]}},{"type":"Feature","properties":{"osm_id":"400585303","code":6101,"fclass":"rail","name":null,"layer":0,"bridge":"F","tunnel":"F"},"geometry":{"type":"LineString","coordinates":[[73.5738242,19.6926436],[73.5740601,19.6926282],[73.5742069,19.6926113],[73.5776953,19.6922039],[73.5782642,19.6921371],[73.5784506,19.6921291],[73.5788855,19.6921232]]}},{"type":"Feature","properties":{"osm_id":"400585304","code":6101,"fclass":"rail","name":null,"layer":0,"bridge":"F","tunnel":"F"},"geometry":{"type":"LineString","coordinates":[[73.5669703,19.6936345],[73.5673963,19.6935231],[73.5678761,19.6934266],[73.568399,19.6933431],[73.5689991,19.6932662],[73.5696895,19.6931864],[73.5718917,19.6929302],[73.5722029,19.6928883]]}},{"type":"Feature","properties":{"osm_id":"400585305","code":6101,"fclass":"rail","name":null,"layer":0,"bridge":"F","tunnel":"F"},"geometry":{"type":"LineString","coordinates":[[73.573959,19.6928338],[73.5742212,19.6928366],[73.5743695,19.6928267],[73.5807262,19.6921031],[73.5808566,19.6920848],[73.5812266,19.6919959],[73.5815293,19.6919564],[73.5817893,19.691922]]}},{"type":"Feature","properties":{"osm_id":"608433096","code":6101,"fclass":"rail","name":null,"layer":0,"bridge":"F","tunnel":"F"},"geometry":{"type":"LineString","coordinates":[[73.5678362,18.7621961],[73.5674068,18.7623654],[73.5668061,18.7626264],[73.5662247,18.7629069],[73.5658629,18.7630938],[73.5655081,18.7632873],[73.5626208,18.7649677],[73.5589381,18.7670568],[73.5576808,18.7674349],[73.5564967,18.7676591],[73.5554215,18.7676738],[73.5545395,18.7675666],[73.5539167,18.7674562],[73.553601,18.7673612],[73.5530095,18.7671463],[73.5524406,18.7669182],[73.551029,18.7663047],[73.5505587,18.7661384],[73.5501913,18.7660248],[73.5497703,18.7659204],[73.5493196,18.7658315],[73.5488079,18.7657565],[73.5445852,18.7653155],[73.544238,18.76527],[73.5438957,18.7652106],[73.543334,18.7650817],[73.5428323,18.7649301],[73.5424257,18.7647855],[73.5419835,18.764601],[73.5415401,18.7643692],[73.5411161,18.7641005],[73.540629,18.7637449],[73.5401612,18.7633592],[73.5388126,18.7621722],[73.5384048,18.7618462],[73.5379626,18.7615362],[73.5374836,18.7612488],[73.5369577,18.7609904],[73.5362514,18.7607066],[73.529401,18.7581476],[73.5285936,18.7578068],[73.5278324,18.757427],[73.5272491,18.7571026],[73.5266334,18.7567214],[73.5261016,18.7563541],[73.5252578,18.7556775],[73.524377,18.7549706],[73.52364,18.7543973],[73.5229031,18.7538748],[73.5223373,18.7535196],[73.5218772,18.7532584]]}},{"type":"Feature","properties":{"osm_id":"619726066","code":6101,"fclass":"rail","name":null,"layer":0,"bridge":"F","tunnel":"F"},"geometry":{"type":"LineString","coordinates":[[73.7058726,18.7032625],[73.7065941,18.7032142],[73.7070769,18.7032524],[73.7073183,18.7033718],[73.707726,18.7036919]]}},{"type":"Feature","properties":{"osm_id":"619726071","code":6101,"fclass":"rail","name":null,"layer":0,"bridge":"F","tunnel":"F"},"geometry":{"type":"LineString","coordinates":[[73.7053442,18.7033286],[73.7058726,18.7032625],[73.7064385,18.703326],[73.7069723,18.7035496],[73.7073103,18.7037503],[73.7077931,18.7043194]]}},{"type":"Feature","properties":{"osm_id":"619726075","code":6101,"fclass":"rail","name":null,"layer":0,"bridge":"F","tunnel":"F"},"geometry":{"type":"LineString","coordinates":[[73.7028994,18.7051159],[73.7031582,18.7045887],[73.7033781,18.7042787],[73.703708,18.7039561],[73.7039368,18.703796],[73.7041292,18.7036614],[73.7045288,18.7034556],[73.7049767,18.703354],[73.7053442,18.7033286],[73.7058565,18.7034048],[73.7061998,18.7035267],[73.7067658,18.7038723],[73.7072405,18.704388]]}},{"type":"Feature","properties":{"osm_id":"619726080","code":6101,"fclass":"rail","name":null,"layer":0,"bridge":"F","tunnel":"F"},"geometry":{"type":"LineString","coordinates":[[73.7037309,18.7125087],[73.7029517,18.7129469],[73.7025225,18.7132721],[73.7021792,18.7136074],[73.7018895,18.7139554],[73.7016267,18.7143467],[73.7014496,18.7146718],[73.7013236,18.7149462],[73.7012029,18.7152866],[73.7010741,18.7156829],[73.7010339,18.7161783],[73.7010446,18.7168667],[73.7011734,18.717357],[73.7013316,18.7176466],[73.7015623,18.7179311],[73.7018305,18.718147],[73.702265,18.7183325],[73.7024796,18.7183884],[73.702729,18.7184163],[73.7031233,18.7184011],[73.7033996,18.7183452],[73.7038234,18.7182003],[73.7042874,18.717954],[73.7087655,18.7155272],[73.7095083,18.7150287],[73.7099093,18.7147252],[73.7100716,18.7145257],[73.7102433,18.7142552],[73.7103519,18.7139135],[73.7103881,18.7135845],[73.7103412,18.7131946],[73.7102258,18.7128681],[73.7100367,18.7125252],[73.7096773,18.7121301],[73.7092656,18.7118418],[73.708882,18.7116703],[73.7085776,18.7115928],[73.7082718,18.7115509],[73.7080291,18.7115522],[73.7076107,18.7115878],[73.7072848,18.7116259],[73.7071359,18.7116374],[73.706625,18.7116767],[73.7063299,18.7117414],[73.7055512,18.7119187],[73.7052999,18.7119777],[73.7049311,18.7121022],[73.7041198,18.7123537],[73.7037309,18.7125087],[73.7033285,18.7126052],[73.702835,18.7127932],[73.7025359,18.7129647],[73.7021537,18.7132301],[73.7019418,18.7134194],[73.7015945,18.7137878],[73.7013799,18.7141002],[73.7011975,18.7144343],[73.7010111,18.7148725]]}},{"type":"Feature","properties":{"osm_id":"619726088","code":6101,"fclass":"rail","name":null,"layer":0,"bridge":"F","tunnel":"F"},"geometry":{"type":"LineString","coordinates":[[73.706625,18.7116767],[73.7068835,18.7116106],[73.7071721,18.7115369],[73.7077555,18.7113413]]}},{"type":"Feature","properties":{"osm_id":"619726105","code":6101,"fclass":"rail","name":null,"layer":0,"bridge":"F","tunnel":"F"},"geometry":{"type":"LineString","coordinates":[[73.7149398,18.7021764],[73.715385,18.7021066],[73.7155792,18.7020811],[73.7159188,18.7020367],[73.7161596,18.7019905],[73.7164911,18.7019269],[73.7166403,18.7018982]]}},{"type":"Feature","properties":{"osm_id":"619726111","code":6101,"fclass":"rail","name":null,"layer":0,"bridge":"F","tunnel":"F"},"geometry":{"type":"LineString","coordinates":[[73.7113912,18.7024813],[73.7117627,18.7024546],[73.7127726,18.7024025],[73.7138052,18.7023631]]}},{"type":"Feature","properties":{"osm_id":"619726113","code":6101,"fclass":"rail","name":null,"layer":0,"bridge":"F","tunnel":"F"},"geometry":{"type":"LineString","coordinates":[[73.7106105,18.7024388],[73.7110198,18.7024648],[73.7113912,18.7024813],[73.7117158,18.7025054],[73.7132205,18.7024356],[73.7135343,18.7024025],[73.7138052,18.7023631],[73.7146689,18.7022171]]}},{"type":"Feature","properties":{"osm_id":"619726119","code":6101,"fclass":"rail","name":null,"layer":0,"bridge":"F","tunnel":"F"},"geometry":{"type":"LineString","coordinates":[[73.7029088,18.7049494],[73.7029704,18.7047221],[73.7030509,18.704543],[73.7032387,18.704261],[73.7034559,18.7040006],[73.7036343,18.7038075],[73.7037617,18.7036843],[73.7039509,18.7035684],[73.7043008,18.703354],[73.7047166,18.7031711],[73.7051377,18.703072],[73.7058377,18.7030237],[73.7069904,18.7029936],[73.7074605,18.7029449],[73.7077233,18.7028814],[73.7078869,18.7028281],[73.7080961,18.7027315],[73.7082839,18.7026223],[73.7085924,18.7024673],[73.7089062,18.7023644],[73.7090858,18.7023283],[73.7091395,18.7023149],[73.709401,18.7022996],[73.7096505,18.7023009],[73.7102084,18.702372],[73.7104095,18.7024054],[73.7106105,18.7024388],[73.7109581,18.7024965],[73.7113336,18.7025791],[73.7116541,18.7026388],[73.7119545,18.7026668],[73.7125714,18.7026541],[73.7128034,18.7026426],[73.7130837,18.7026071],[73.7134311,18.7025346],[73.7143913,18.7022831],[73.7146689,18.7022171],[73.7149398,18.7021764],[73.715491,18.7021625],[73.7157176,18.7021942],[73.7160207,18.7022831],[73.7162058,18.702353],[73.7164566,18.7024254],[73.7167248,18.7024673],[73.7169796,18.7024648]]}},{"type":"Feature","properties":{"osm_id":"619726126","code":6101,"fclass":"rail","name":null,"layer":0,"bridge":"F","tunnel":"F"},"geometry":{"type":"LineString","coordinates":[[73.7111609,18.7020079],[73.7114073,18.7019605],[73.7118096,18.7019477],[73.7147359,18.701808]]}},{"type":"Feature","properties":{"osm_id":"619726129","code":6101,"fclass":"rail","name":null,"layer":0,"bridge":"F","tunnel":"F"},"geometry":{"type":"LineString","coordinates":[[73.7103371,18.7021396],[73.7107314,18.7020583],[73.7109312,18.7020265],[73.7111042,18.70201],[73.7111609,18.7020079],[73.7118115,18.7019836],[73.7147378,18.7018439]]}},{"type":"Feature","properties":{"osm_id":"619726132","code":6101,"fclass":"rail","name":null,"layer":0,"bridge":"F","tunnel":"F"},"geometry":{"type":"LineString","coordinates":[[73.7104095,18.7024054],[73.710659,18.7023962],[73.711343,18.7023212],[73.7115133,18.7023098],[73.7133519,18.7022249],[73.7142397,18.7022095],[73.714457,18.7022196],[73.7146689,18.7022171]]}},{"type":"Feature","properties":{"osm_id":"619726136","code":6101,"fclass":"rail","name":null,"layer":0,"bridge":"F","tunnel":"F"},"geometry":{"type":"LineString","coordinates":[[73.7096505,18.7023009],[73.7100783,18.7023111],[73.7106121,18.702306],[73.7118261,18.7022573],[73.7155792,18.7020811]]}},{"type":"Feature","properties":{"osm_id":"619726139","code":6101,"fclass":"rail","name":null,"layer":0,"bridge":"F","tunnel":"F"},"geometry":{"type":"LineString","coordinates":[[73.7120943,18.7022086],[73.7154588,18.7020494],[73.7159188,18.7020367]]}},{"type":"Feature","properties":{"osm_id":"619726142","code":6101,"fclass":"rail","name":null,"layer":0,"bridge":"F","tunnel":"F"},"geometry":{"type":"LineString","coordinates":[[73.7127794,18.702139],[73.7155433,18.7020049],[73.7159067,18.701991],[73.7161596,18.7019905]]}},{"type":"Feature","properties":{"osm_id":"619726146","code":6101,"fclass":"rail","name":null,"layer":0,"bridge":"F","tunnel":"F"},"geometry":{"type":"LineString","coordinates":[[73.7133518,18.7020675],[73.7147462,18.7020009],[73.7164911,18.7019269]]}},{"type":"Feature","properties":{"osm_id":"619726148","code":6101,"fclass":"rail","name":null,"layer":0,"bridge":"F","tunnel":"F"},"geometry":{"type":"LineString","coordinates":[[73.7091395,18.7023149],[73.7096331,18.7022412],[73.7099522,18.7021904],[73.710191,18.7021713],[73.711818,18.7021047],[73.7159792,18.7019109]]}},{"type":"Feature","properties":{"osm_id":"619726153","code":6101,"fclass":"rail","name":null,"layer":0,"bridge":"F","tunnel":"F"},"geometry":{"type":"LineString","coordinates":[[73.710191,18.7021713],[73.7103371,18.7021396],[73.7106402,18.7021129],[73.7118158,18.7020644],[73.7147421,18.7019246]]}},{"type":"Feature","properties":{"osm_id":"619726156","code":6101,"fclass":"rail","name":null,"layer":0,"bridge":"F","tunnel":"F"},"geometry":{"type":"LineString","coordinates":[[73.7103371,18.7021396],[73.7107609,18.7020735],[73.7110519,18.7020532],[73.7118137,18.702024],[73.71474,18.7018843]]}},{"type":"Feature","properties":{"osm_id":"619726160","code":6101,"fclass":"rail","name":null,"layer":0,"bridge":"F","tunnel":"F"},"geometry":{"type":"LineString","coordinates":[[73.7070889,18.7105538],[73.7043102,18.7090562],[73.7040393,18.7088847],[73.7038401,18.7087287]]}},{"type":"Feature","properties":{"osm_id":"619726163","code":6101,"fclass":"rail","name":null,"layer":0,"bridge":"F","tunnel":"F"},"geometry":{"type":"LineString","coordinates":[[73.7071601,18.7104521],[73.7041533,18.7088847],[73.7038401,18.7087287],[73.7035216,18.7085595],[73.7033392,18.7084376],[73.703234,18.7083431],[73.7031622,18.7082788],[73.7029906,18.7080756],[73.7028819,18.707913],[73.7028028,18.7077516],[73.7026338,18.707335],[73.7026043,18.7071407],[73.7025855,18.7068269]]}},{"type":"Feature","properties":{"osm_id":"619726168","code":6101,"fclass":"rail","name":null,"layer":0,"bridge":"F","tunnel":"F"},"geometry":{"type":"LineString","coordinates":[[73.7073063,18.709723],[73.704211,18.7080222],[73.7041122,18.7079356]]}},{"type":"Feature","properties":{"osm_id":"619726172","code":6101,"fclass":"rail","name":null,"layer":0,"bridge":"F","tunnel":"F"},"geometry":{"type":"LineString","coordinates":[[73.7027336,18.70595],[73.7027572,18.7063112],[73.7028162,18.7065614],[73.7028886,18.7067456],[73.7029825,18.7069527],[73.7031287,18.7071813],[73.7032481,18.7073452],[73.703358,18.7074722],[73.7035404,18.7076068],[73.703659,18.7076761],[73.7038381,18.7077809],[73.7041122,18.7079356],[73.7044457,18.7081238],[73.7073532,18.709638]]}},{"type":"Feature","properties":{"osm_id":"619726177","code":6101,"fclass":"rail","name":null,"layer":0,"bridge":"F","tunnel":"F"},"geometry":{"type":"LineString","coordinates":[[73.703535,18.703072],[73.7033433,18.7031965],[73.7031555,18.7033883],[73.7029919,18.7036284],[73.7029101,18.7038214],[73.7028645,18.7039701],[73.7028511,18.7042406],[73.7029107,18.7047234]]}},{"type":"Feature","properties":{"osm_id":"619726182","code":6101,"fclass":"rail","name":null,"layer":0,"bridge":"F","tunnel":"F"},"geometry":{"type":"LineString","coordinates":[[73.7020784,18.7093183],[73.7020639,18.7087996],[73.7020786,18.708482],[73.7021188,18.708007],[73.7021564,18.7077961],[73.7022261,18.7074785],[73.7024447,18.7068371],[73.7026727,18.7062337]]}},{"type":"Feature","properties":{"osm_id":"619726192","code":6101,"fclass":"rail","name":null,"layer":0,"bridge":"F","tunnel":"F"},"geometry":{"type":"LineString","coordinates":[[73.7088244,18.7108624],[73.7084287,18.7110632],[73.708064,18.7112372],[73.7077555,18.7113413],[73.7068541,18.7115336],[73.7063058,18.7116513],[73.7053214,18.7118583],[73.7051269,18.7118685],[73.7048936,18.7118558],[73.7046401,18.7118164],[73.7044631,18.7117732],[73.7042807,18.7117084],[73.7038824,18.7115357],[73.7029235,18.7110492],[73.7027304,18.7109031],[73.7025802,18.7107469],[73.702371,18.710475],[73.7022556,18.7102769],[73.7021765,18.7100851],[73.7021124,18.7098768]]}},{"type":"Feature","properties":{"osm_id":"619726196","code":6101,"fclass":"rail","name":null,"layer":0,"bridge":"F","tunnel":"F"},"geometry":{"type":"LineString","coordinates":[[73.7030047,18.7112156],[73.7027344,18.7110365],[73.7024957,18.7108205],[73.702426,18.710738],[73.7023213,18.7105754],[73.7022355,18.7104179],[73.7021832,18.7102642],[73.702139,18.7100876],[73.7021124,18.7098768],[73.7020987,18.7097688],[73.7020947,18.7095224],[73.7021141,18.7091429]]}},{"type":"Feature","properties":{"osm_id":"619726201","code":6101,"fclass":"rail","name":null,"layer":0,"bridge":"F","tunnel":"F"},"geometry":{"type":"LineString","coordinates":[[73.7055512,18.7119187],[73.7053187,18.7119421],[73.7049928,18.7119498],[73.7047541,18.7119282],[73.7045422,18.7118888],[73.704325,18.7118227],[73.7038462,18.7115979],[73.7030047,18.7112156],[73.7020679,18.7107761]]}},{"type":"Feature","properties":{"osm_id":"619726210","code":6101,"fclass":"rail","name":null,"layer":0,"bridge":"F","tunnel":"F"},"geometry":{"type":"LineString","coordinates":[[73.6906323,18.7261019],[73.6935318,18.7261261],[73.6968979,18.726168],[73.6971809,18.7261655],[73.6973874,18.7261489],[73.6976302,18.7261032],[73.6977173,18.7260799],[73.6978863,18.7260346],[73.6982095,18.7258543],[73.6984992,18.7256587],[73.6986212,18.7255317],[73.6987449,18.725361],[73.6987795,18.7253132],[73.6989686,18.7249728],[73.6990799,18.7246832],[73.6994688,18.7228123],[73.6995962,18.7220972],[73.6999235,18.7204727],[73.7000576,18.7197081],[73.7001353,18.7193118],[73.7002426,18.7188482],[73.70037,18.7181293],[73.7005672,18.7171093],[73.700818,18.7158683],[73.7008931,18.7153984],[73.7010111,18.7148725],[73.7012498,18.7136315],[73.7014765,18.7123753],[73.7015824,18.7118977],[73.7017111,18.71126],[73.7019378,18.7100089],[73.7020784,18.7093183],[73.7021141,18.7091429],[73.7025855,18.7068269],[73.7026727,18.7062337],[73.7027336,18.70595],[73.7028645,18.7053394],[73.7028994,18.7051159],[73.7029088,18.7049494],[73.7029107,18.7047234],[73.7029155,18.7041746],[73.7029409,18.7039815],[73.7029865,18.7038113],[73.7030831,18.703622],[73.7032011,18.7034518],[73.7033285,18.7033184],[73.7034774,18.7032092],[73.7035941,18.7031444]]}},{"type":"Feature","properties":{"osm_id":"661779004","code":6101,"fclass":"rail","name":null,"layer":0,"bridge":"F","tunnel":"F"},"geometry":{"type":"LineString","coordinates":[[73.5698757,19.693251],[73.5689034,19.6933254]]}},{"type":"Feature","properties":{"osm_id":"801304725","code":6101,"fclass":"rail","name":null,"layer":0,"bridge":"T","tunnel":"F"},"geometry":{"type":"LineString","coordinates":[[73.6541703,19.766335],[73.6541615,19.76624]]}},{"type":"Feature","properties":{"osm_id":"801304726","code":6101,"fclass":"rail","name":null,"layer":0,"bridge":"F","tunnel":"F"},"geometry":{"type":"LineString","coordinates":[[73.6547042,19.7692857],[73.6545745,19.7689513],[73.65435,19.7681448],[73.6542846,19.7676246],[73.6541889,19.7666476],[73.6541703,19.766335]]}},{"type":"Feature","properties":{"osm_id":"801304727","code":6101,"fclass":"rail","name":null,"layer":0,"bridge":"T","tunnel":"F"},"geometry":{"type":"LineString","coordinates":[[73.6541175,19.7662487],[73.6541247,19.7663375]]}},{"type":"Feature","properties":{"osm_id":"801304728","code":6101,"fclass":"rail","name":null,"layer":0,"bridge":"F","tunnel":"F"},"geometry":{"type":"LineString","coordinates":[[73.6541247,19.7663375],[73.6541719,19.7669789],[73.6542619,19.7679282],[73.6543856,19.7684846],[73.6545163,19.7689374],[73.6546551,19.7693039]]}},{"type":"Feature","properties":{"osm_id":"801304729","code":6101,"fclass":"rail","name":null,"layer":0,"bridge":"T","tunnel":"F"},"geometry":{"type":"LineString","coordinates":[[73.6546551,19.7693039],[73.6546893,19.7693943]]}},{"type":"Feature","properties":{"osm_id":"801304730","code":6101,"fclass":"rail","name":null,"layer":0,"bridge":"T","tunnel":"F"},"geometry":{"type":"LineString","coordinates":[[73.654739,19.7693754],[73.6547042,19.7692857]]}},{"type":"Feature","properties":{"osm_id":"801304731","code":6101,"fclass":"rail","name":null,"layer":0,"bridge":"F","tunnel":"F"},"geometry":{"type":"LineString","coordinates":[[73.6541615,19.76624],[73.6540685,19.765624],[73.6539728,19.7651039],[73.6538126,19.7646326],[73.6534594,19.7637768],[73.6531036,19.7631166],[73.6527303,19.7626239],[73.6521967,19.7619944],[73.6515579,19.7613932],[73.651137,19.76099],[73.650646,19.7605019],[73.6501123,19.759962],[73.6496864,19.7594622],[73.6489424,19.7585874],[73.6480004,19.7575099],[73.6467227,19.7560504],[73.645435,19.7545768],[73.6446813,19.7536955],[73.6442049,19.7531385],[73.6429297,19.7516672],[73.6419201,19.7505071],[73.6414441,19.7497738],[73.6408028,19.7487576],[73.6403643,19.7479087],[73.6401163,19.7474041],[73.639728,19.7463572],[73.6393747,19.7450532],[73.6391267,19.7437398],[73.639034,19.7427141],[73.6390315,19.7415257],[73.6391167,19.7404457],[73.6393121,19.7392195],[73.6396052,19.737965],[73.6399009,19.7366233],[73.6402316,19.7350245],[73.6405172,19.7336921],[73.6405773,19.7331851],[73.6405898,19.732546],[73.6405547,19.7319259],[73.6405089,19.7315512],[73.6402418,19.7307265],[73.6398683,19.7300252],[73.6394285,19.7291832],[73.6385756,19.7277505],[73.6377749,19.7263731],[73.6370061,19.724899],[73.6364534,19.723575],[73.6359396,19.7222042],[73.635433,19.7208268],[73.6347598,19.7190891],[73.6340973,19.7172848],[73.6335683,19.7156221],[73.6333001,19.7150235],[73.6329033,19.7144364],[73.6324498,19.713776],[73.6321203,19.7134125],[73.6315286,19.7128555],[73.6307244,19.7122851],[73.6301114,19.7119116],[73.629169,19.7114713],[73.6273408,19.7106808],[73.6246907,19.7095201],[73.6225613,19.7085762],[73.6217535,19.7081893],[73.6209457,19.7077723],[73.6202903,19.7073287],[73.6195817,19.7068051],[73.6188412,19.7061546],[73.6181767,19.7054312],[73.6177181,19.7048838],[73.617176,19.7040866],[73.6167296,19.7034062],[73.6162371,19.7027424],[73.6157836,19.7022287],[73.6154074,19.7019126],[73.6149687,19.7015683],[73.6143593,19.7011346],[73.6136863,19.7007529]]}},{"type":"Feature","properties":{"osm_id":"801304732","code":6101,"fclass":"rail","name":null,"layer":0,"bridge":"F","tunnel":"F"},"geometry":{"type":"LineString","coordinates":[[73.6136496,19.70079],[73.6143857,19.7012288],[73.6151771,19.7017724],[73.6157443,19.7022665],[73.6162402,19.702806],[73.6179568,19.7052233],[73.6181258,19.7054458],[73.6183125,19.7056481],[73.6188196,19.7061778],[73.619172,19.7065022],[73.619538,19.7068139],[73.619936,19.7071234],[73.6203676,19.7074362],[73.6208563,19.7077507],[73.6214034,19.708072],[73.6237771,19.7091763],[73.6255578,19.709948],[73.6273793,19.7107401],[73.6286775,19.7113239],[73.6297385,19.7117882],[73.6306567,19.7122978],[73.6314699,19.7128982],[73.6323389,19.7137057],[73.6332246,19.7150079],[73.633519,19.7156443],[73.6340843,19.7174288],[73.634898,19.7196179],[73.6356662,19.7217959],[73.6363523,19.723659],[73.6371632,19.7253726],[73.6381813,19.7271937],[73.6387819,19.7282463],[73.6393282,19.7292219],[73.6397493,19.7299178],[73.6401802,19.730764],[73.6404297,19.7316042],[73.6405439,19.7324655],[73.6404818,19.7335919],[73.640286,19.7345658],[73.6400516,19.7356445],[73.6397217,19.7372217],[73.6392355,19.7393422],[73.6390749,19.7403596],[73.638975,19.7414464],[73.638975,19.74257],[73.6390792,19.7438366],[73.6392659,19.7448539],[73.6395003,19.7458345],[73.63993,19.7471092],[73.6404726,19.7482532],[73.641254,19.7496259],[73.6418878,19.7505411],[73.642604,19.751395],[73.6432986,19.7521876],[73.6446471,19.7537337],[73.6462634,19.7555867],[73.6476438,19.7571718],[73.6499836,19.7598926],[73.6508734,19.7608241],[73.6518632,19.7617555],[73.6523233,19.762209],[73.6526706,19.7626134],[73.6530569,19.7631445],[73.6534346,19.7638635],[73.6536603,19.764366],[73.653802,19.7647757],[73.6539289,19.765185],[73.6540273,19.7656452],[73.6541175,19.7662487]]}},{"type":"Feature","properties":{"osm_id":"816292499","code":6101,"fclass":"rail","name":null,"layer":0,"bridge":"F","tunnel":"F"},"geometry":{"type":"LineString","coordinates":[[73.5559004,19.696177],[73.5563976,19.6958797]]}},{"type":"Feature","properties":{"osm_id":"817802096","code":6101,"fclass":"rail","name":null,"layer":0,"bridge":"F","tunnel":"F"},"geometry":{"type":"LineString","coordinates":[[73.6691802,19.7852446],[73.6692201,19.7852624],[73.6696274,19.7855087],[73.6700229,19.7857945],[73.670394,19.7861319],[73.6707842,19.7865399],[73.6710499,19.7868547],[73.6712949,19.7871829],[73.6714384,19.7874042],[73.6715511,19.7876186],[73.6717942,19.7881681],[73.6719369,19.7886232],[73.6720197,19.7891668],[73.6720719,19.7896838],[73.6720934,19.7902326],[73.6720811,19.7909229],[73.672078,19.7916507],[73.6720838,19.7927684],[73.6720754,19.7936535],[73.6721245,19.7944407],[73.6722379,19.7950016],[73.6723114,19.7956584],[73.6723869,19.796407],[73.6724065,19.7969273],[73.6724065,19.7975742],[73.6722346,19.798406],[73.6720136,19.799307],[73.6718908,19.7999655],[73.6718908,19.8005316],[73.6719399,19.8012593],[73.6720047,19.8016453]]}},{"type":"Feature","properties":{"osm_id":"817802097","code":6101,"fclass":"rail","name":null,"layer":1,"bridge":"T","tunnel":"F"},"geometry":{"type":"LineString","coordinates":[[73.6690289,19.7851732],[73.6691802,19.7852446]]}},{"type":"Feature","properties":{"osm_id":"817802098","code":6101,"fclass":"rail","name":null,"layer":0,"bridge":"F","tunnel":"F"},"geometry":{"type":"LineString","coordinates":[[73.6720226,19.8017519],[73.6720504,19.8019178],[73.6722469,19.80253],[73.6724679,19.8031538],[73.6727503,19.803639],[73.673094,19.8041242],[73.6734133,19.8045516],[73.6739481,19.8050888],[73.6744977,19.8055327],[73.6750242,19.8058965],[73.6756537,19.8062535],[73.6763097,19.8065394],[73.6768169,19.8067037],[73.6772873,19.8068212],[73.6778975,19.8069051],[73.678683,19.806964],[73.6799054,19.8068746],[73.6809501,19.8067803],[73.6819748,19.8066978],[73.6829694,19.8066059],[73.6840767,19.8064999],[73.6850437,19.806415],[73.6861411,19.8063136],[73.6871732,19.8062453],[73.6877845,19.8061934],[73.6882981,19.8062005],[73.689205,19.8062115],[73.6900559,19.8062545],[73.6908595,19.8064786],[73.6919881,19.8069551],[73.6927917,19.8074335],[73.6937273,19.8080775],[73.6944075,19.8088235],[73.6949093,19.8095022],[73.6952285,19.8100198],[73.6955086,19.8105468],[73.6957818,19.8111259],[73.6959835,19.8120555],[73.696057,19.8126082],[73.6961348,19.8136514],[73.6962507,19.8143155],[73.6966756,19.8156903],[73.696977,19.8162121],[73.6972313,19.8165977],[73.6974663,19.8170246],[73.6978579,19.8174253],[73.6982924,19.8178483],[73.6990335,19.818471]]}},{"type":"Feature","properties":{"osm_id":"817802099","code":6101,"fclass":"rail","name":null,"layer":1,"bridge":"T","tunnel":"F"},"geometry":{"type":"LineString","coordinates":[[73.6720047,19.8016453],[73.6720226,19.8017519]]}},{"type":"Feature","properties":{"osm_id":"817802100","code":6101,"fclass":"rail","name":null,"layer":0,"bridge":"F","tunnel":"F"},"geometry":{"type":"LineString","coordinates":[[73.6690419,19.7851255],[73.6688697,19.7850377],[73.668296,19.7848184],[73.6672362,19.7844625],[73.665931,19.7839957],[73.6652864,19.7837479],[73.6645228,19.7834254],[73.6642197,19.7832269],[73.6636259,19.7827795],[73.6632372,19.7824174],[73.6628192,19.7819591],[73.6621302,19.7809454],[73.661331,19.7797525],[73.6605661,19.7785693],[73.6605369,19.7785302],[73.6598103,19.7774068],[73.658916,19.7760277],[73.656814,19.7728309],[73.6554161,19.7706808],[73.6550089,19.7699981],[73.654739,19.7693754]]}},{"type":"Feature","properties":{"osm_id":"817802101","code":6101,"fclass":"rail","name":null,"layer":1,"bridge":"T","tunnel":"F"},"geometry":{"type":"LineString","coordinates":[[73.6691656,19.7851886],[73.6690419,19.7851255]]}},{"type":"Feature","properties":{"osm_id":"817802102","code":6101,"fclass":"rail","name":null,"layer":0,"bridge":"F","tunnel":"F"},"geometry":{"type":"LineString","coordinates":[[73.6744181,19.8031231],[73.6742907,19.8029869],[73.6741753,19.8028408],[73.6740418,19.8026668],[73.6735635,19.8018868],[73.6733474,19.8014068],[73.6731313,19.8006401],[73.6730214,19.7999167],[73.6727734,19.7982433],[73.6726565,19.7971698],[73.6725275,19.7964253],[73.6722668,19.7948912],[73.6721716,19.7944009],[73.672129,19.7937409],[73.6721315,19.7925811],[73.6721516,19.79103],[73.6721491,19.7899245],[73.672094,19.7893446],[73.6720528,19.788947],[73.6719579,19.7885252],[73.6718257,19.788125],[73.6716024,19.7876228],[73.6714125,19.787289],[73.6711545,19.7869094],[73.6709514,19.7866426],[73.6706885,19.7863555],[73.6703453,19.7860184],[73.6701073,19.7858079],[73.6698267,19.7855964],[73.6695261,19.7853724],[73.6691656,19.7851886]]}},{"type":"Feature","properties":{"osm_id":"1283573313","code":6101,"fclass":"rail","name":"Mumbai–Pune Railway","layer":0,"bridge":"F","tunnel":"F"},"geometry":{"type":"LineString","coordinates":[[73.6032388,18.7579662],[73.6022103,18.7581638],[73.6011354,18.7585172],[73.5999118,18.7591672],[73.5981932,18.7605042],[73.5978386,18.7607534],[73.5975087,18.7609642],[73.59716,18.7611623],[73.5968207,18.7613337],[73.5965197,18.7614638],[73.5962909,18.7615585],[73.595781,18.761733],[73.5952945,18.7618539],[73.5947745,18.7619875],[73.5942854,18.762056],[73.5940438,18.7620771],[73.5938395,18.7620899],[73.5934085,18.7620908],[73.5924646,18.7620679],[73.5890307,18.761911],[73.5749013,18.7612453],[73.5735763,18.761209],[73.5725025,18.7612437],[73.5713554,18.7613425],[73.5699105,18.7615258],[73.5682311,18.7620521],[73.5679361,18.7621597]]}},{"type":"Feature","properties":{"osm_id":"1283573314","code":6101,"fclass":"rail","name":null,"layer":1,"bridge":"T","tunnel":"F"},"geometry":{"type":"LineString","coordinates":[[73.5679361,18.7621597],[73.5678362,18.7621961]]}},{"type":"Feature","properties":{"osm_id":"1315005286","code":6101,"fclass":"rail","name":"Mumbai–Pune Railway","layer":0,"bridge":"F","tunnel":"F"},"geometry":{"type":"LineString","coordinates":[[73.603245,18.7579993],[73.6022197,18.7581963],[73.60115,18.758548],[73.5999316,18.7591952],[73.5982234,18.7605347],[73.5978708,18.760789],[73.5975409,18.7610023],[73.5971841,18.7612029],[73.5968395,18.7613782],[73.5965368,18.7615038],[73.596307,18.7615991],[73.5957855,18.7617671],[73.5952958,18.761894],[73.5947843,18.7620172],[73.5942875,18.7620896],[73.5940479,18.7621149],[73.5938421,18.762128],[73.5934076,18.7621289],[73.5924596,18.7620981],[73.5890264,18.7619516],[73.5748984,18.7613086],[73.5735775,18.7612617],[73.5725034,18.7612774],[73.5713593,18.7613759],[73.569918,18.7615588],[73.56796,18.7622037]]}},{"type":"Feature","properties":{"osm_id":"1315005287","code":6101,"fclass":"rail","name":null,"layer":1,"bridge":"T","tunnel":"F"},"geometry":{"type":"LineString","coordinates":[[73.56796,18.7622037],[73.5678553,18.7622438]]}},{"type":"Feature","properties":{"osm_id":"1315005292","code":6101,"fclass":"rail","name":"Mumbai–Pune Railway","layer":0,"bridge":"F","tunnel":"F"},"geometry":{"type":"LineString","coordinates":[[73.603245,18.7579993],[73.6039703,18.7578936],[73.6089181,18.7574412],[73.6094808,18.7573809],[73.61005,18.7572985],[73.6106938,18.7571451],[73.6113352,18.7569858],[73.6120688,18.7567366],[73.6156409,18.7550874]]}},{"type":"Feature","properties":{"osm_id":"1315005293","code":6101,"fclass":"rail","name":"Mumbai–Pune Railway","layer":0,"bridge":"F","tunnel":"F"},"geometry":{"type":"LineString","coordinates":[[73.6156101,18.7550427],[73.6120547,18.7567056],[73.6113247,18.7569536],[73.610685,18.7571125],[73.610043,18.7572655],[73.6094762,18.7573475],[73.6089144,18.7574077],[73.6039659,18.7578602],[73.6032388,18.7579662]]}},{"type":"Feature","properties":{"osm_id":"1315005294","code":6101,"fclass":"rail","name":"Mumbai–Pune Railway","layer":1,"bridge":"T","tunnel":"F"},"geometry":{"type":"LineString","coordinates":[[73.6157969,18.7549525],[73.6156101,18.7550427]]}},{"type":"Feature","properties":{"osm_id":"1315005295","code":6101,"fclass":"rail","name":"Mumbai–Pune Railway","layer":1,"bridge":"T","tunnel":"F"},"geometry":{"type":"LineString","coordinates":[[73.6156409,18.7550874],[73.6158212,18.7549981]]}},{"type":"Feature","properties":{"osm_id":"1316323045","code":6101,"fclass":"rail","name":"Mumbai–Pune Railway","layer":0,"bridge":"F","tunnel":"F"},"geometry":{"type":"LineString","coordinates":[[73.6755606,18.7321895],[73.6749117,18.7326954]]}},{"type":"Feature","properties":{"osm_id":"1316323046","code":6101,"fclass":"rail","name":"Mumbai–Pune Railway","layer":0,"bridge":"F","tunnel":"F"},"geometry":{"type":"LineString","coordinates":[[73.6747928,18.7327997],[73.6741755,18.733321],[73.6732342,18.7342414],[73.6719918,18.735374],[73.6707724,18.7364696],[73.6695011,18.7375694],[73.6691699,18.7378307],[73.6689105,18.7380286],[73.6686646,18.7381881],[73.6683842,18.7383563],[73.6681131,18.7384988],[73.6678149,18.7386431],[73.6675678,18.7387585],[73.6673043,18.7388694],[73.6670999,18.7389489],[73.666682,18.7391086],[73.6663047,18.739231]]}},{"type":"Feature","properties":{"osm_id":"1316323047","code":6101,"fclass":"rail","name":"Mumbai–Pune Railway","layer":0,"bridge":"F","tunnel":"F"},"geometry":{"type":"LineString","coordinates":[[73.6678578,18.7387264],[73.668221,18.7385791],[73.6684536,18.7384697],[73.6686107,18.738388],[73.6687494,18.7383048],[73.6689943,18.7381399],[73.6692593,18.7379372],[73.6695723,18.7376693],[73.6708609,18.7365615],[73.6720733,18.7354657],[73.673323,18.7343302],[73.6742778,18.7334055],[73.6748243,18.7328268]]}},{"type":"Feature","properties":{"osm_id":"1316323048","code":6101,"fclass":"rail","name":"Mumbai–Pune Railway","layer":0,"bridge":"F","tunnel":"F"},"geometry":{"type":"LineString","coordinates":[[73.6678578,18.7387264],[73.6681987,18.738548],[73.6684305,18.7384307],[73.6687211,18.7382659],[73.6689631,18.7381006],[73.6692286,18.7379045],[73.6695489,18.7376448],[73.6708314,18.7365308],[73.6718511,18.7356103],[73.6732934,18.7343006],[73.6742437,18.7333773],[73.6748243,18.7328268]]}},{"type":"Feature","properties":{"osm_id":"1316323049","code":6101,"fclass":"rail","name":"Mumbai–Pune Railway","layer":0,"bridge":"F","tunnel":"F"},"geometry":{"type":"LineString","coordinates":[[73.6158212,18.7549981],[73.6269048,18.7495857],[73.6287071,18.7487458],[73.6297515,18.7482146],[73.6304025,18.7478313],[73.6311618,18.747226],[73.6323205,18.7463319],[73.6333505,18.7453159],[73.6344835,18.7441618],[73.6357539,18.743189],[73.6366684,18.7426006],[73.6376083,18.7420748],[73.6381275,18.7418131],[73.6385914,18.7416036],[73.6395888,18.741205],[73.6400911,18.7410511],[73.6411698,18.7407469],[73.6416973,18.7406382],[73.6421592,18.740543],[73.6492978,18.7396183],[73.6503879,18.7395451],[73.6512119,18.7395939],[73.653495,18.7398133],[73.6544219,18.739919],[73.655306,18.7399352],[73.6604816,18.7397077],[73.6644563,18.7395491],[73.6653279,18.7394643],[73.6657538,18.7393999],[73.6661728,18.739315],[73.6664586,18.7392472],[73.6667051,18.7391787],[73.6670039,18.7390795],[73.6673435,18.7389529],[73.6676078,18.7388387],[73.6678578,18.7387264]]}},{"type":"Feature","properties":{"osm_id":"1316323050","code":6101,"fclass":"rail","name":"Mumbai–Pune Railway","layer":0,"bridge":"F","tunnel":"F"},"geometry":{"type":"LineString","coordinates":[[73.6747928,18.7327997],[73.6742096,18.7333491],[73.6732638,18.734271],[73.6718193,18.7355793],[73.6708019,18.7365002],[73.6695212,18.7376118],[73.6692038,18.7378744],[73.6689373,18.738067],[73.6686929,18.738227],[73.6684073,18.7383935],[73.6681316,18.7385397],[73.6678363,18.7386847],[73.6675863,18.7387972],[73.6673239,18.7389111],[73.666987,18.7390372],[73.6666881,18.7391291],[73.6663047,18.739231]]}},{"type":"Feature","properties":{"osm_id":"1316323051","code":6101,"fclass":"rail","name":"Mumbai–Pune Railway","layer":0,"bridge":"F","tunnel":"F"},"geometry":{"type":"LineString","coordinates":[[73.6663047,18.739231],[73.66616,18.7392652],[73.6657446,18.7393417],[73.6653225,18.7394092],[73.664457,18.7395027],[73.6604801,18.7396741],[73.6553056,18.7399015],[73.6544244,18.7398854],[73.653499,18.7397798],[73.6512149,18.7395604],[73.6503878,18.7395114],[73.6492943,18.7395848],[73.6421526,18.7405099],[73.6416888,18.7406041],[73.6411621,18.7407203],[73.6400784,18.7410149],[73.639573,18.7411736],[73.638584,18.7415623],[73.6381117,18.7417796],[73.6375937,18.7420446],[73.636649,18.7425724],[73.6357238,18.7431536],[73.634459,18.7441374],[73.6333247,18.7452928],[73.6322964,18.7463071],[73.6311403,18.7471992],[73.6303712,18.747786],[73.6297292,18.7481676],[73.6286901,18.7487162],[73.6268889,18.7495556],[73.6157969,18.7549525]]}},{"type":"Feature","properties":{"osm_id":"1316323052","code":6101,"fclass":"rail","name":null,"layer":0,"bridge":"F","tunnel":"F"},"geometry":{"type":"LineString","coordinates":[[73.66616,18.7392652],[73.6660566,18.7392879],[73.6659533,18.7393131],[73.6655399,18.7394236],[73.6654338,18.7394456],[73.6653279,18.7394643]]}},{"type":"Feature","properties":{"osm_id":"1316323058","code":6101,"fclass":"rail","name":"Mumbai–Pune Railway","layer":0,"bridge":"F","tunnel":"F"},"geometry":{"type":"LineString","coordinates":[[73.7934208,18.6353558],[73.7932339,18.6361744],[73.793088,18.6367792],[73.792959,18.6372214],[73.792835,18.6375485],[73.7924924,18.6383252],[73.7922922,18.6387288],[73.7920883,18.6391152],[73.791861,18.6395097],[73.7915392,18.6400077],[73.7911588,18.6405387],[73.790804,18.6409732],[73.7906027,18.6412046],[73.7903925,18.641427],[73.7900417,18.6418007],[73.7896159,18.642187],[73.7891864,18.6425637],[73.7887597,18.6428835],[73.788353,18.6431808],[73.7880769,18.6433459]]}},{"type":"Feature","properties":{"osm_id":"1316323059","code":6101,"fclass":"rail","name":"Mumbai–Pune Railway","layer":0,"bridge":"F","tunnel":"F"},"geometry":{"type":"LineString","coordinates":[[73.7883758,18.6432104],[73.7887866,18.6429177],[73.7892166,18.6425967],[73.7896485,18.6422195],[73.7900759,18.6418319],[73.7904283,18.6414564],[73.7906412,18.6412311],[73.790841,18.6410013],[73.7911971,18.6405652],[73.7915788,18.6400323],[73.7919021,18.6395322],[73.7921303,18.639136],[73.7923349,18.6387484],[73.7925357,18.6383434],[73.7928788,18.6375658],[73.793004,18.6372372],[73.7931388,18.6367902],[73.7932849,18.6361845]]}},{"type":"Feature","properties":{"osm_id":"1316837799","code":6101,"fclass":"rail","name":null,"layer":0,"bridge":"F","tunnel":"F"},"geometry":{"type":"LineString","coordinates":[[73.567425,19.6936118],[73.567677,19.6935586]]}},{"type":"Feature","properties":{"osm_id":"1316837800","code":6101,"fclass":"rail","name":null,"layer":0,"bridge":"F","tunnel":"F"},"geometry":{"type":"LineString","coordinates":[[73.5662092,19.6940401],[73.5663191,19.6939885],[73.5664846,19.6939217],[73.5666268,19.6938838],[73.5668112,19.6938243],[73.567425,19.6936118]]}},{"type":"Feature","properties":{"osm_id":"1316837801","code":6101,"fclass":"rail","name":null,"layer":0,"bridge":"F","tunnel":"F"},"geometry":{"type":"LineString","coordinates":[[73.5568483,19.6957796],[73.556901,19.6957543],[73.5573432,19.6955846],[73.5575809,19.695494],[73.5581379,19.6952975],[73.5587357,19.6950865],[73.5589882,19.6950195]]}},{"type":"Feature","properties":{"osm_id":"1316858921","code":6101,"fclass":"rail","name":null,"layer":0,"bridge":"F","tunnel":"F"},"geometry":{"type":"LineString","coordinates":[[73.5664689,19.693742],[73.5658394,19.6938595],[73.5656094,19.6939033],[73.5651013,19.6940199],[73.5648692,19.6940558],[73.5646195,19.6940869],[73.5628587,19.6942249],[73.5611241,19.6943549],[73.5607053,19.6944082],[73.5604848,19.6944493],[73.5601227,19.6945453],[73.5596702,19.6946827]]}},{"type":"Feature","properties":{"osm_id":"1316858922","code":6101,"fclass":"rail","name":null,"layer":0,"bridge":"F","tunnel":"F"},"geometry":{"type":"LineString","coordinates":[[73.5676914,19.6935137],[73.5669703,19.6936345],[73.5664689,19.693742]]}}]}